#cP2022  6 13 12  0  0.00000000     192 ORBIT IGb14 HLM  IGS
## 2214 129600.00000000   900.00000000 59743 0.5000000000000
+   32   G01G02G03G04G05G06G07G08G09G10G11G12G13G14G15G16G17
+        G18G19G20G21G22G23G24G25G26G27G28G29G30G31G32  0  0
+          0  0  0  0  0  0  0  0  0  0  0  0  0  0  0  0  0
+          0  0  0  0  0  0  0  0  0  0  0  0  0  0  0  0  0
+          0  0  0  0  0  0  0  0  0  0  0  0  0  0  0  0  0
++         3  3  3  3  3  4  3  3  3  3  4  4  3  4  3  3  3
++         4  3  4  3  3  4  3  3  3  4  3  3  3  4  3  0  0
++         0  0  0  0  0  0  0  0  0  0  0  0  0  0  0  0  0
++         0  0  0  0  0  0  0  0  0  0  0  0  0  0  0  0  0
++         0  0  0  0  0  0  0  0  0  0  0  0  0  0  0  0  0
%c G  cc GPS ccc cccc cccc cccc cccc ccccc ccccc ccccc ccccc
%c cc cc ccc ccc cccc cccc cccc cccc ccccc ccccc ccccc ccccc
%f  1.2500000  1.025000000  0.00000000000  0.000000000000000
%f  0.0000000  0.000000000  0.00000000000  0.000000000000000
%i    0    0    0    0      0      0      0      0         0
%i    0    0    0    0      0      0      0      0         0
/* ULTRA ORBIT COMBINATION 22142_12 (59744.500) FROM:       
/* cou emu esu gfu siu usu whu                              
/* REFERENCED TO emu CLOCK AND TO WEIGHTED MEAN POLE:       
/* PCV:IGS14_2212 OL/AL:FES2004  NONE     Y  ORB:CMB CLK:CMB
*  2022  6 13 21 45  0.00000000
PG01   -572.732407  15472.303985 -21831.627483    341.937449  9  6  7 168       
PG02  19954.502641 -15751.398956   8605.182335   -652.707925  7  8  8 160       
PG03   8368.807452  20304.352444 -15132.411401   -277.608406  7  4  9 152       
PG04   -476.009600  25637.716644   6752.031181   -157.364686  8  5  3 212       
PG05   6076.842361 -14180.018473  21439.014937    -85.424142  6  4  7 163       
PG06  25447.044079  -5327.542070  -5579.721519    342.467605  5  8  8 209       
PG07  16270.056106   8955.417301  19570.964014    321.785464  4  5  5 175       
PG08  -5117.726593  25798.487077   1830.025167    -72.032222  8  5  3 163       
PG09   7809.788915  20295.353393  15160.880194   -328.628949  7  4  4 110       
PG10 -22632.671088  -9847.434207 -10046.845706   -453.731611  7  8  6 145       
PG11  21951.317642 -12601.291385   8008.228596    -15.321240 10  9 10 203       
PG12  -3470.319596 -19956.627771 -17506.557474   -230.674298  9  6  6 185       
PG13  13155.339378 -21035.736342   9078.628385    329.425343  7  6  7 184       
PG14  22303.600661  11287.986216  -9116.697258   -111.430878  9 11  6 144       
PG15   1694.286323 -26302.293952    844.515771    -53.473429  7  7  7 167       
PG16 -12008.130036   9019.030394  21656.208544   -508.720684  5     7 189       
PG17  14115.263689   3866.981859 -21731.712785    624.668879 10  9  8 198       
PG18 -15510.104161  -8845.910803  19690.639323    142.988377 12 11 10 191       
PG19  15995.441395  -4875.107850 -20840.696894    170.309329  6  9  8 181       
PG20  16156.026532  -7089.829141  19789.997410    511.669700  6  9  7 139       
PG21 -10539.189234  17334.508168 -16132.184226    161.310820  9  6  6 201       
PG22 -15913.947519   8323.159401 -19091.892034    275.307120  9  6  6 178       
PG23 -20923.534688 -16456.646468     57.062885    -27.840160 11 11  9 193       
PG24   3937.728423 -17745.811976 -19534.493097    221.372272  8  8  6 126       
PG25 -16362.759291 -19938.600862  -7193.703041    336.996549  7  7  6 175       
PG26 -19867.963826   1400.372365  17631.501448    212.147265     8  8 187       
PG27 -12388.550581  19022.429562  13241.363447    215.170365 10  9  8 192       
PG28  20142.541083   4534.181726 -16065.228172    338.886315  8  8  8 181       
PG29  -5849.926548 -20419.616164  15847.567085   -523.752058 10  7  8 200       
PG30  23258.663715   1982.375086  12992.637647   -531.281793  2  8  8 164       
PG31 -25838.241759   6501.637311  -3154.356988   -181.680902 10  8  5 161       
PG32 -15242.991104   -811.588431 -21578.500714   -150.507397  8  4  3 154       
*  2022  6 13 22  0  0.00000000
PG01  -2817.548805  16287.081610 -21008.152591    341.930316 10  7  6 179       
PG02  20716.509613 -15902.926180   5907.929916   -652.707661  7  7  8 165       
PG03   6848.485651  19298.071286 -17090.756054   -277.619258  8  4  9 161       
PG04   -830.463164  26200.147636   3979.338607   -157.361041  8  6  3 212       
PG05   8131.471768 -12750.328961  21666.353090    -85.425211  6  6  6 170       
PG06  24766.615945  -4876.252066  -8335.177536    342.481606  6  8  8 209       
PG07  14247.411029   9854.907916  20663.389830    321.785528  3  5  4 180       
PG08  -5345.640176  25389.027154   4678.940063    -72.035118  7  4  3 161       
PG09   7410.007425  21884.004923  13005.372345   -328.625901  7  4  3 118       
PG10 -23320.221491 -10607.349149  -7418.554004   -453.744842  8  8  7 135       
PG11  22748.909254 -12623.809033   5283.343301    -15.318802  9  9 10 207       
PG12  -1874.413838 -18681.220377 -19099.630946   -230.679688 10  5  5 176       
PG13  13044.439270 -19811.927063  11613.071913    329.431600  8  6  7 177       
PG14  22823.738936  12053.934010  -6473.017592   -111.431464  7 10  6 162       
PG15   2059.787553 -25994.923630   3640.329217    -53.470613  6  7  7 180       
PG16 -13831.444108   7298.065536  21258.183930   -508.723025  7  2  7 194       
PG17  13588.705208   6374.284026 -21475.468062    624.672935 10  9  9 203       
PG18 -13381.027390  -9750.849416  20783.928224    142.978770 12 10 10 194       
PG19  15484.735463  -2552.565292 -21653.962880    170.313644  7  9  8 186       
PG20  18015.910130  -5900.153876  18513.407526    511.667021  6 10  7 143       
PG21 -12305.433900  17958.325023 -14089.553743    161.312286  8  6  6 204       
PG22 -15520.834486   6015.274244 -20239.184968    275.312771  9  5  7  91       
PG23 -20654.529587 -16535.219550   2916.921562    -27.842049 12 12 10 192       
PG24   5911.071073 -18548.176253 -18188.881484    221.364687  8  7  5 121       
PG25 -15489.611442 -19548.507324  -9801.840402    337.000692  7  7  6 175       
PG26 -21351.387278    153.626212  15902.868494    212.149510  4  8  8 183       
PG27 -12357.321446  17325.336575  15422.520334    215.173421 10 10  8 189       
PG28  21329.518402   5913.946515 -13996.591694    338.879767  7  8  8 177       
PG29  -5343.647614 -22047.696435  13701.179476   -523.755127 10  6  7 201       
PG30  21858.451358   2771.252757  15098.421650   -531.282851  2  8  7 153       
PG31 -25454.852218   6109.800184  -5909.064247   -181.682318 10  7  5 148       
PG32 -14928.995362  -3294.049860 -21578.671486   -150.515755  7  4  4 168       
*  2022  6 13 22 15  0.00000000
PG01  -4914.460339  17182.014205 -19830.070601    341.923209  9  7  6 180       
PG02  21206.924095 -15937.730285   3111.484280   -652.707137  6  7  8 165       
PG03   5106.806881  18260.868967 -18758.677478   -277.630148  7  4  9 162       
PG04  -1119.812272  26463.726543   1137.795653   -157.357377  8  6  2 211       
PG05  10259.720625 -11427.285174  21515.025700    -85.426386  6  6  6 164       
PG06  23837.441454  -4256.338047 -10947.534361    342.495554  7  8  8 208       
PG07  12179.496882  10903.354299  21415.961629    321.784823     5  3 178       
PG08  -5576.427664  24671.608519   7445.519435    -72.036593  7  4  4 162       
PG09   7106.877622  23233.921496  10624.852869   -328.622902  7  4  3 108       
PG10 -23797.244746 -11155.865035  -4664.148847   -453.758190  9  8  7 136       
PG11  23253.960496 -12568.401970   2467.394026    -15.316276  9  9  9 206       
PG12    -86.683557 -17394.633436 -20372.135610   -230.684652 10  4  3 178       
PG13  12940.067061 -18312.007079  13944.244191    329.437814  8  6  7 182       
PG14  23137.898983  12610.364793  -3718.559691   -111.432133  4  9  6 155       
PG15   2457.661507 -25389.733593   6371.792088    -53.468158  6  5  6 177       
PG16 -15688.088806   5722.163398  20487.307500   -508.725371  7  3  6 174       
PG17  13204.563875   8854.485537 -20834.336754    624.676982 11  9  8 201       
PG18 -11208.586031 -10812.690912  21520.086647    142.969160 10  9  9 192       
PG19  15090.614438   -138.428455 -22102.209022    170.318153  8  9  9 185       
PG20  19786.453701  -4872.102907  16915.992436    511.664613  4  9  7 127       
PG21 -13817.453865  18542.422071 -11786.420141    161.311534  8  6  7 205       
PG22 -15227.822808   3580.282371 -21023.908209    275.318630  9  6  6  73       
PG23 -20120.636583 -16454.606210   5726.902692    -27.843942 13 12 11 192       
PG24   7702.731057 -19361.144256 -16533.168807    221.357251  7  7  4 100       
PG25 -14364.540722 -19045.870909 -12245.737971    337.004822  7  7  5 186       
PG26 -22713.126840   -908.114493  13902.491725    212.151710  5  8  7 182       
PG27 -12397.900184  15395.297940  17329.768992    215.176525 10 10  8 191       
PG28  22391.246778   7065.097832 -11676.681780    338.872644  5  8  6  81       
PG29  -4966.608727 -23446.300002  11317.457865   -523.758431  9  6  7 197       
PG30  20296.138111   3719.805687  16948.706436   -531.283886  2  8  6 151       
PG31 -24816.605148   5575.021283  -8565.169577   -181.683564  9  7  5 134       
PG32 -14744.299869  -5765.987169 -21202.707145   -150.524102  7  3  4 169       
EOF
